{
  "type": "FeatureCollection",
  "features": [
    {
      "type": "Feature",
      "properties": {
        "norad_id": 29922,
        "name": "FENGYUN 1C DEB",
        "group": "fengyun-1c-debris",
        "lat": -72.26031911021121,
        "lon": 65.06320835059047,
        "alt_km": 926.0177690954688,
        "timestamp": "2025-12-03T08:58:46.273753+00:00",
        "meta_object_name": "FENGYUN 1C DEB",
        "meta_object_id": "1999-025HU",
        "meta_epoch": "2025-12-03T02:27:58.939200",
        "meta_mean_motion": 13.98572764,
        "meta_eccentricity": 0.0093861,
        "meta_inclination": 99.1371,
        "meta_ra_of_asc_node": 34.5886,
        "meta_arg_of_pericenter": 33.5983,
        "meta_mean_anomaly": 327.1085,
        "meta_ephemeris_type": 0,
        "meta_classification_type": "U",
        "meta_norad_cat_id": 29922,
        "meta_element_set_no": 999,
        "meta_rev_at_epoch": 96306,
        "meta_bstar": 0.00035299,
        "meta_mean_motion_dot": 4.81e-06,
        "meta_mean_motion_ddot": 0,
        "tle_line1": "1 29922U 99025HU  25337.10276550  .00000481  00000+0  35299-3 0  9998",
        "tle_line2": "2 29922  99.1371  34.5886 0093861  33.5983 327.1085 13.98572764963060"
      },
      "geometry": {
        "type": "Point",
        "coordinates": [
          65.06320835059047,
          -72.26031911021121
        ]
      }
    },
    {
      "type": "Feature",
      "properties": {
        "norad_id": 29923,
        "name": "FENGYUN 1C DEB",
        "group": "fengyun-1c-debris",
        "lat": -26.945484241881413,
        "lon": -9.612179055199656,
        "alt_km": 860.9178347013221,
        "timestamp": "2025-12-03T08:58:46.273763+00:00",
        "meta_object_name": "FENGYUN 1C DEB",
        "meta_object_id": "1999-025HV",
        "meta_epoch": "2025-12-02T20:06:30.152736",
        "meta_mean_motion": 14.13864504,
        "meta_eccentricity": 0.0017216,
        "meta_inclination": 98.6886,
        "meta_ra_of_asc_node": 345.4085,
        "meta_arg_of_pericenter": 197.4627,
        "meta_mean_anomaly": 287.0477,
        "meta_ephemeris_type": 0,
        "meta_classification_type": "U",
        "meta_norad_cat_id": 29923,
        "meta_element_set_no": 999,
        "meta_rev_at_epoch": 97135,
        "meta_bstar": 0.00058676,
        "meta_mean_motion_dot": 1.071e-05,
        "meta_mean_motion_ddot": 0,
        "tle_line1": "1 29923U 99025HV  25336.83784899  .00001071  00000+0  58676-3 0  9998",
        "tle_line2": "2 29923  98.6886 345.4085 0017216 197.4627 287.0477 14.13864504971350"
      },
      "geometry": {
        "type": "Point",
        "coordinates": [
          -9.612179055199656,
          -26.945484241881413
        ]
      }
    },
    {
      "type": "Feature",
      "properties": {
        "norad_id": 29924,
        "name": "FENGYUN 1C DEB",
        "group": "fengyun-1c-debris",
        "lat": 63.648353583357874,
        "lon": -171.29691937962252,
        "alt_km": 875.4537708263124,
        "timestamp": "2025-12-03T08:58:46.273773+00:00",
        "meta_object_name": "FENGYUN 1C DEB",
        "meta_object_id": "1999-025HW",
        "meta_epoch": "2025-12-02T00:11:17.657664",
        "meta_mean_motion": 14.08884992,
        "meta_eccentricity": 0.00259185,
        "meta_inclination": 98.7348,
        "meta_ra_of_asc_node": 349.298,
        "meta_arg_of_pericenter": 289.1823,
        "meta_mean_anomaly": 99.7698,
        "meta_ephemeris_type": 0,
        "meta_classification_type": "U",
        "meta_norad_cat_id": 29924,
        "meta_element_set_no": 999,
        "meta_rev_at_epoch": 97057,
        "meta_bstar": 4.1722713e-05,
        "meta_mean_motion_dot": 2.9e-07,
        "meta_mean_motion_ddot": 0,
        "tle_line1": "1 29924U 99025HW  25336.00784326  .00000029  00000+0  41723-4 0  9991",
        "tle_line2": "2 29924  98.7348 349.2980 0025918 289.1823  99.7698 14.08884992970579"
      },
      "geometry": {
        "type": "Point",
        "coordinates": [
          -171.29691937962252,
          63.648353583357874
        ]
      }
    },
    {
      "type": "Feature",
      "properties": {
        "norad_id": 29926,
        "name": "FENGYUN 1C DEB",
        "group": "fengyun-1c-debris",
        "lat": -55.32478635104269,
        "lon": 134.51241953715078,
        "alt_km": 789.8564316048933,
        "timestamp": "2025-12-03T08:58:46.273783+00:00",
        "meta_object_name": "FENGYUN 1C DEB",
        "meta_object_id": "1999-025HY",
        "meta_epoch": "2025-12-02T22:04:05.276064",
        "meta_mean_motion": 14.3333983,
        "meta_eccentricity": 0.0248841,
        "meta_inclination": 98.2821,
        "meta_ra_of_asc_node": 326.2317,
        "meta_arg_of_pericenter": 329.642,
        "meta_mean_anomaly": 84.7421,
        "meta_ephemeris_type": 0,
        "meta_classification_type": "U",
        "meta_norad_cat_id": 29926,
        "meta_element_set_no": 999,
        "meta_rev_at_epoch": 98440,
        "meta_bstar": 0.00061872,
        "meta_mean_motion_dot": 2.358e-05,
        "meta_mean_motion_ddot": 0,
        "tle_line1": "1 29926U 99025HY  25336.91950551  .00002358  00000+0  61872-3 0  9991",
        "tle_line2": "2 29926  98.2821 326.2317 0248841 329.6420  84.7421 14.33339830984405"
      },
      "geometry": {
        "type": "Point",
        "coordinates": [
          134.51241953715078,
          -55.32478635104269
        ]
      }
    },
    {
      "type": "Feature",
      "properties": {
        "norad_id": 29927,
        "name": "FENGYUN 1C DEB",
        "group": "fengyun-1c-debris",
        "lat": 67.33400708554089,
        "lon": -22.329933965394396,
        "alt_km": 654.0100720048076,
        "timestamp": "2025-12-03T08:58:46.273793+00:00",
        "meta_object_name": "FENGYUN 1C DEB",
        "meta_object_id": "1999-025HZ",
        "meta_epoch": "2025-12-03T00:45:49.732704",
        "meta_mean_motion": 14.73948933,
        "meta_eccentricity": 0.0017534,
        "meta_inclination": 99.0856,
        "meta_ra_of_asc_node": 359.8181,
        "meta_arg_of_pericenter": 241.2734,
        "meta_mean_anomaly": 172.5679,
        "meta_ephemeris_type": 0,
        "meta_classification_type": "U",
        "meta_norad_cat_id": 29927,
        "meta_element_set_no": 999,
        "meta_rev_at_epoch": 98504,
        "meta_bstar": 0.0040748,
        "meta_mean_motion_dot": 0.00026856,
        "meta_mean_motion_ddot": 0,
        "tle_line1": "1 29927U 99025HZ  25337.03182561  .00026856  00000+0  40748-2 0  9991",
        "tle_line2": "2 29927  99.0856 359.8181 0017534 241.2734 172.5679 14.73948933985040"
      },
      "geometry": {
        "type": "Point",
        "coordinates": [
          -22.329933965394396,
          67.33400708554089
        ]
      }
    },
    {
      "type": "Feature",
      "properties": {
        "norad_id": 29928,
        "name": "FENGYUN 1C DEB",
        "group": "fengyun-1c-debris",
        "lat": -23.827713258457905,
        "lon": 177.1114430100922,
        "alt_km": 914.2987642774988,
        "timestamp": "2025-12-03T08:58:46.273804+00:00",
        "meta_object_name": "FENGYUN 1C DEB",
        "meta_object_id": "1999-025JA",
        "meta_epoch": "2025-12-03T01:13:31.691136",
        "meta_mean_motion": 13.88060497,
        "meta_eccentricity": 0.0143562,
        "meta_inclination": 99.5856,
        "meta_ra_of_asc_node": 1.0596,
        "meta_arg_of_pericenter": 128.7596,
        "meta_mean_anomaly": 260.1189,
        "meta_ephemeris_type": 0,
        "meta_classification_type": "U",
        "meta_norad_cat_id": 29928,
        "meta_element_set_no": 999,
        "meta_rev_at_epoch": 95357,
        "meta_bstar": 0.00077071,
        "meta_mean_motion_dot": 9.51e-06,
        "meta_mean_motion_ddot": 0,
        "tle_line1": "1 29928U 99025JA  25337.05106124  .00000951  00000+0  77071-3 0  9993",
        "tle_line2": "2 29928  99.5856   1.0596 0143562 128.7596 260.1189 13.88060497953576"
      },
      "geometry": {
        "type": "Point",
        "coordinates": [
          177.1114430100922,
          -23.827713258457905
        ]
      }
    },
    {
      "type": "Feature",
      "properties": {
        "norad_id": 29929,
        "name": "FENGYUN 1C DEB",
        "group": "fengyun-1c-debris",
        "lat": -19.013095838339236,
        "lon": -99.873673864092,
        "alt_km": 964.5185893431099,
        "timestamp": "2025-12-03T08:58:46.273814+00:00",
        "meta_object_name": "FENGYUN 1C DEB",
        "meta_object_id": "1999-025JB",
        "meta_epoch": "2025-12-02T17:55:06.893184",
        "meta_mean_motion": 14.0131136,
        "meta_eccentricity": 0.0130772,
        "meta_inclination": 98.6239,
        "meta_ra_of_asc_node": 256.5357,
        "meta_arg_of_pericenter": 204.4667,
        "meta_mean_anomaly": 211.3952,
        "meta_ephemeris_type": 0,
        "meta_classification_type": "U",
        "meta_norad_cat_id": 29929,
        "meta_element_set_no": 999,
        "meta_rev_at_epoch": 95816,
        "meta_bstar": 0.0012739,
        "meta_mean_motion_dot": 2.026e-05,
        "meta_mean_motion_ddot": 0,
        "tle_line1": "1 29929U 99025JB  25336.74660756  .00002026  00000+0  12739-2 0  9999",
        "tle_line2": "2 29929  98.6239 256.5357 0130772 204.4667 211.3952 14.01311360958164"
      },
      "geometry": {
        "type": "Point",
        "coordinates": [
          -99.873673864092,
          -19.013095838339236
        ]
      }
    }
  ]
}